[
    {
        "Altitude(m)": 571551.2205041598,
        "Argument of Periapsis(deg)": 0.0,
        "Eccentricity": 0.0,
        "Inclination(deg)": 53.0,
        "Latitude(deg)": -52.3880351398205,
        "Longitude(deg)": 111.62406601980545,
        "Mean Anomaly(deg)": -98.18179999999994,
        "RAAN(deg)": 315.0,
        "Satellite Name": "Starlink Shell 1 1402",
        "Satellite Number": 1402,
        "Semi-Major Axis(m)": 6931778.249405717,
        "Time(s)": 0
    },
    {
        "Altitude(m)": 571594.363232968,
        "Argument of Periapsis(deg)": 0.00034857847951123687,
        "Eccentricity": 0.0,
        "Inclination(deg)": 53.0,
        "Latitude(deg)": -52.49947904443246,
        "Longitude(deg)": 112.58846053526756,
        "Mean Anomaly(deg)": -97.55496879644328,
        "RAAN(deg)": 314.9994812299225,
        "Satellite Name": "Starlink Shell 1 1402",
        "Satellite Number": 1402,
        "Semi-Major Axis(m)": 6931778.249405717,
        "Time(s)": 10
    },
    {
        "Altitude(m)": 571634.1250312718,
        "Argument of Periapsis(deg)": 0.0006971569590224737,
        "Eccentricity": 0.0,
        "Inclination(deg)": 53.0,
        "Latitude(deg)": -52.602335586393124,
        "Longitude(deg)": 113.55774786501519,
        "Mean Anomaly(deg)": -96.92813759288654,
        "RAAN(deg)": 314.9989624598451,
        "Satellite Name": "Starlink Shell 1 1402",
        "Satellite Number": 1402,
        "Semi-Major Axis(m)": 6931778.249405717,
        "Time(s)": 20
    },
    {
        "Altitude(m)": 571670.4900163746,
        "Argument of Periapsis(deg)": 0.0010457354385337105,
        "Eccentricity": 0.0,
        "Inclination(deg)": 53.0,
        "Latitude(deg)": -52.69653316119092,
        "Longitude(deg)": 114.53157205473393,
        "Mean Anomaly(deg)": -96.30130638932985,
        "RAAN(deg)": 314.9984436897676,
        "Satellite Name": "Starlink Shell 1 1402",
        "Satellite Number": 1402,
        "Semi-Major Axis(m)": 6931778.249405717,
        "Time(s)": 30
    },
    {
        "Altitude(m)": 571703.4436587656,
        "Argument of Periapsis(deg)": 0.0013943139180449475,
        "Eccentricity": 0.0,
        "Inclination(deg)": 53.0,
        "Latitude(deg)": -52.7820055028757,
        "Longitude(deg)": 115.50956522528017,
        "Mean Anomaly(deg)": -95.67447518577309,
        "RAAN(deg)": 314.9979249196901,
        "Satellite Name": "Starlink Shell 1 1402",
        "Satellite Number": 1402,
        "Semi-Major Axis(m)": 6931778.249405717,
        "Time(s)": 40
    },
    {
        "Altitude(m)": 571732.9727884207,
        "Argument of Periapsis(deg)": 0.0017428923975561844,
        "Eccentricity": 0.0,
        "Inclination(deg)": 53.0,
        "Latitude(deg)": -52.858691905841525,
        "Longitude(deg)": 116.49134739753468,
        "Mean Anomaly(deg)": -95.04764398221646,
        "RAAN(deg)": 314.99740614961263,
        "Satellite Name": "Starlink Shell 1 1402",
        "Satellite Number": 1402,
        "Semi-Major Axis(m)": 6931778.249405717,
        "Time(s)": 50
    },
    {
        "Altitude(m)": 571759.0656005049,
        "Argument of Periapsis(deg)": 0.002091470877067421,
        "Eccentricity": 0.0,
        "Inclination(deg)": 53.0,
        "Latitude(deg)": -52.926537431385725,
        "Longitude(deg)": 117.476527906611,
        "Mean Anomaly(deg)": -94.4208127786598,
        "RAAN(deg)": 314.99688737953517,
        "Satellite Name": "Starlink Shell 1 1402",
        "Satellite Number": 1402,
        "Semi-Major Axis(m)": 6931778.249405717,
        "Time(s)": 60
    },
    {
        "Altitude(m)": 571781.7116604736,
        "Argument of Periapsis(deg)": 0.0024400493565786582,
        "Eccentricity": 0.0,
        "Inclination(deg)": 53.0,
        "Latitude(deg)": -52.98549309744696,
        "Longitude(deg)": 118.46470688804075,
        "Mean Anomaly(deg)": -93.79398157510293,
        "RAAN(deg)": 314.9963686094577,
        "Satellite Name": "Starlink Shell 1 1402",
        "Satellite Number": 1402,
        "Semi-Major Axis(m)": 6931778.249405717,
        "Time(s)": 70
    },
    {
        "Altitude(m)": 571800.9019085907,
        "Argument of Periapsis(deg)": 0.002788627836089895,
        "Eccentricity": 0.0,
        "Inclination(deg)": 53.0,
        "Latitude(deg)": -53.035516050024,
        "Longitude(deg)": 119.4554753176876,
        "Mean Anomaly(deg)": -93.16715037154628,
        "RAAN(deg)": 314.99584983938024,
        "Satellite Name": "Starlink Shell 1 1402",
        "Satellite Number": 1402,
        "Semi-Major Axis(m)": 6931778.249405717,
        "Time(s)": 80
    },
    {
        "Altitude(m)": 571816.628663857,
        "Argument of Periapsis(deg)": 0.0031372063156011316,
        "Eccentricity": 0.0,
        "Inclination(deg)": 53.0,
        "Latitude(deg)": -53.07656971489763,
        "Longitude(deg)": 120.44841662491828,
        "Mean Anomaly(deg)": -92.54031916798961,
        "RAAN(deg)": 314.9953310693027,
        "Satellite Name": "Starlink Shell 1 1402",
        "Satellite Number": 1402,
        "Semi-Major Axis(m)": 6931778.249405717,
        "Time(s)": 90
    },
    {
        "Altitude(m)": 571828.885627321,
        "Argument of Periapsis(deg)": 0.0034857847951123688,
        "Eccentricity": 0.0,
        "Inclination(deg)": 53.0,
        "Latitude(deg)": -53.108623928413095,
        "Longitude(deg)": 121.44310835916929,
        "Mean Anomaly(deg)": -91.91348796443285,
        "RAAN(deg)": 314.99481229922526,
        "Satellite Name": "Starlink Shell 1 1402",
        "Satellite Number": 1402,
        "Semi-Major Axis(m)": 6931778.249405717,
        "Time(s)": 100
    },
    {
        "Altitude(m)": 571837.6678848136,
        "Argument of Periapsis(deg)": 0.003834363274623606,
        "Eccentricity": 0.0,
        "Inclination(deg)": 53.0,
        "Latitude(deg)": -53.13165504623792,
        "Longitude(deg)": 122.43912238936224,
        "Mean Anomaly(deg)": -91.28665676087611,
        "RAAN(deg)": 314.99429352914785,
        "Satellite Name": "Starlink Shell 1 1402",
        "Satellite Number": 1402,
        "Semi-Major Axis(m)": 6931778.249405717,
        "Time(s)": 110
    },
    {
        "Altitude(m)": 571842.9719090753,
        "Argument of Periapsis(deg)": 0.004182941754134842,
        "Eccentricity": 0.0,
        "Inclination(deg)": 53.0,
        "Latitude(deg)": -53.1456460291835,
        "Longitude(deg)": 123.43602665361797,
        "Mean Anomaly(deg)": -90.65982555731945,
        "RAAN(deg)": 314.99377475907033,
        "Satellite Name": "Starlink Shell 1 1402",
        "Satellite Number": 1402,
        "Semi-Major Axis(m)": 6931778.249405717,
        "Time(s)": 120
    },
    {
        "Altitude(m)": 571844.7955612832,
        "Argument of Periapsis(deg)": 0.004531520233646079,
        "Eccentricity": 0.0,
        "Inclination(deg)": 53.0,
        "Latitude(deg)": -53.15058650536301,
        "Longitude(deg)": 124.43338693761183,
        "Mean Anomaly(deg)": -90.03299435376275,
        "RAAN(deg)": 314.9932559889928,
        "Satellite Name": "Starlink Shell 1 1402",
        "Satellite Number": 1402,
        "Semi-Major Axis(m)": 6931778.249405717,
        "Time(s)": 130
    },
    {
        "Altitude(m)": 571843.1380919779,
        "Argument of Periapsis(deg)": 0.0048800987131573164,
        "Eccentricity": 0.0,
        "Inclination(deg)": 53.0,
        "Latitude(deg)": -53.14647280815347,
        "Longitude(deg)": 125.4307671595202,
        "Mean Anomaly(deg)": -89.40616315020593,
        "RAAN(deg)": 314.9927372189154,
        "Satellite Name": "Starlink Shell 1 1402",
        "Satellite Number": 1402,
        "Semi-Major Axis(m)": 6931778.249405717,
        "Time(s)": 140
    },
    {
        "Altitude(m)": 571838.0001413906,
        "Argument of Periapsis(deg)": 0.005228677192668553,
        "Eccentricity": 0.0,
        "Inclination(deg)": 53.0,
        "Latitude(deg)": -53.1333079896394,
        "Longitude(deg)": 126.42773117785612,
        "Mean Anomaly(deg)": -88.77933194664925,
        "RAAN(deg)": 314.99221844883795,
        "Satellite Name": "Starlink Shell 1 1402",
        "Satellite Number": 1402,
        "Semi-Major Axis(m)": 6931778.249405717,
        "Time(s)": 150
    },
    {
        "Altitude(m)": 571829.3837391696,
        "Argument of Periapsis(deg)": 0.00557725567217979,
        "Eccentricity": 0.0,
        "Inclination(deg)": 53.0,
        "Latitude(deg)": -53.11110180942131,
        "Longitude(deg)": 127.42384459974642,
        "Mean Anomaly(deg)": -88.15250074309259,
        "RAAN(deg)": 314.9916996787604,
        "Satellite Name": "Starlink Shell 1 1402",
        "Satellite Number": 1402,
        "Semi-Major Axis(m)": 6931778.249405717,
        "Time(s)": 160
    },
    {
        "Altitude(m)": 571817.2923035033,
        "Argument of Periapsis(deg)": 0.0059258341516910265,
        "Eccentricity": 0.0,
        "Inclination(deg)": 53.0,
        "Latitude(deg)": -53.07987069888364,
        "Longitude(deg)": 128.41867506718913,
        "Mean Anomaly(deg)": -87.52566953953576,
        "RAAN(deg)": 314.99118090868296,
        "Satellite Name": "Starlink Shell 1 1402",
        "Satellite Number": 1402,
        "Semi-Major Axis(m)": 6931778.249405717,
        "Time(s)": 170
    },
    {
        "Altitude(m)": 571801.7306396535,
        "Argument of Periapsis(deg)": 0.006274412631202263,
        "Eccentricity": 0.0,
        "Inclination(deg)": 53.0,
        "Latitude(deg)": -53.03963770123143,
        "Longitude(deg)": 129.41179403757158,
        "Mean Anomaly(deg)": -86.89883833597906,
        "RAAN(deg)": 314.9906621386055,
        "Satellite Name": "Starlink Shell 1 1402",
        "Satellite Number": 1402,
        "Semi-Major Axis(m)": 6931778.249405717,
        "Time(s)": 180
    }
]